OBJECT_NAME,OBJECT_ID,EPOCH,MEAN_MOTION,ECCENTRICITY,INCLINATION,RA_OF_ASC_NODE,ARG_OF_PERICENTER,MEAN_ANOMALY,EPHEMERIS_TYPE,CLASSIFICATION_TYPE,NORAD_CAT_ID,ELEMENT_SET_NO,REV_AT_EPOCH,BSTAR,MEAN_MOTION_DOT,MEAN_MOTION_DDOT
SIRION PATHFINDER-2,2018-099B,2026-07-01T09:15:41.111136,15.14671485,.00072425,97.4243,231.1062,244.4216,115.6268,0,U,43759,999,41477,.27895555E-3,.5099E-4,0
CORVUS BC4,2018-099K,2026-07-01T01:56:38.588352,15.12603535,.00069308,97.4054,224.6547,321.1885,38.8848,0,U,43767,999,41450,.29796216E-3,.5142E-4,0
M2 PATHFINDER,2020-037E,2026-07-01T11:27:23.537664,15.04739933,.0012783,97.8144,13.8690,104.1091,256.1556,0,U,45727,999,32764,.2360209E-3,.3267E-4,0
NETSAT-4,2020-068U,2026-06-30T23:50:08.128896,15.44320928,.00032993,97.8597,191.3470,259.8580,100.2295,0,U,46504,999,31790,.45016304E-3,.20676E-3,0
NETSAT-3,2020-068V,2026-07-01T11:07:56.142336,15.43171946,.00028947,97.8647,190.0546,286.5770,73.5158,0,U,46505,999,31788,.49071231E-3,.21692E-3,0
NETSAT-1,2020-068W,2026-07-01T11:29:24.641952,15.34966050,.00032298,97.8742,184.2317,341.4177,18.6947,0,U,46506,999,31749,.42745655E-3,.14423E-3,0
NETSAT-2,2020-068X,2026-07-01T06:32:13.595712,15.46605782,.0001498,97.8608,191.5959,318.0900,42.0233,0,U,46507,999,31791,.62895E-3,.3131E-3,0
GREENCUBE (IO-117),2022-080E,2026-06-30T17:23:31.202880,6.42583253,.00089588,70.1437,293.5372,286.6703,73.2973,0,U,53109,999,9293,0,-.3E-7,0
SITRO-AIS 5 (KATYS),2023-091L,2026-07-01T14:13:40.038528,15.29786509,.00120368,97.5053,246.6315,58.3318,301.9094,0,U,57176,999,16654,.51650019E-3,.14868E-3,0
SITRO-AIS 6 (CHIRKIN),2023-091AC,2026-07-01T14:31:32.588256,15.26208667,.00124703,97.5060,245.6860,61.5967,298.6526,0,U,57192,999,16648,.46373457E-3,.11958E-3,0
SITRO-AIS 8 (ANOKHIN),2023-091AD,2026-07-01T15:35:34.693440,15.32529593,.00108945,97.5050,248.3370,54.3476,305.8778,0,U,57193,999,16666,.57515878E-3,.18041E-3,0
SITRO-AIS 7 (FARTUSHNIY),2023-091AE,2026-07-01T14:40:21.613728,15.25889939,.00124075,97.5057,245.5097,62.6841,297.5659,0,U,57194,999,16647,.44491213E-3,.11359E-3,0
SITRO-AIS 10 (BURDAEV),2023-091AK,2026-07-01T14:52:27.116256,15.39155744,.00061871,97.5076,253.5112,34.2677,325.8966,0,U,57199,999,16698,.62704697E-3,.24313E-3,0
SITRO-AIS 9 (SHCHUKIN),2023-091AM,2026-07-01T14:03:31.277088,15.38652445,.00064524,97.5075,253.1950,34.3388,325.8273,0,U,57201,999,16696,.58927275E-3,.22467E-3,0
SITRO-AIS 12 (SMIRENNIY),2023-091AQ,2026-07-01T15:19:42.078144,15.38948677,.00059294,97.5087,253.7255,28.6080,331.5489,0,U,57204,999,16699,.60470954E-3,.23281E-3,0
SITRO-AIS 11 (SHEFFER),2023-091AU,2026-07-01T15:33:13.089024,15.39381742,.00058085,97.5086,253.9909,28.0877,332.0681,0,U,57208,999,16701,.58251207E-3,.22741E-3,0
SITRO-AIS 25,2024-039R,2026-07-01T15:31:13.394784,14.93581005,.01423245,95.3899,245.0288,277.5381,80.9696,0,U,59066,999,12688,.24623233E-3,.3133E-4,0
SITRO-AIS 26,2024-039S,2026-07-01T15:36:03.225312,14.93375045,.01426493,95.3901,244.9259,278.1412,80.3654,0,U,59067,999,12687,.24078129E-3,.3048E-4,0
SITRO-AIS 27,2024-039T,2026-07-01T14:47:20.865408,14.93797545,.01417673,95.3906,245.1814,276.8373,81.6741,0,U,59068,999,12689,.17561701E-3,.2233E-4,0
SITRO-AIS 28,2024-039U,2026-07-01T15:50:52.010880,14.93831959,.01415359,95.3906,245.2595,276.5055,82.0074,0,U,59071,999,12690,.24893253E-3,.3183E-4,0
GRBBETA,2024-128C,2026-07-01T11:43:56.264160,15.06725243,.00388117,61.9883,166.0851,137.7509,222.6586,0,U,60237,999,10842,.27107389E-3,.3899E-4,0
OOV-CUBE (TUBSAT-30),2024-128F,2026-07-01T13:27:28.279008,15.02825965,.00428632,61.9925,175.4501,136.9711,223.4745,0,U,60240,999,10827,.15749339E-3,.1946E-4,0
ROBUSTA-3A (MEDITERRANEE),2024-128J,2026-07-01T14:53:27.845088,15.11819152,.00397141,61.9851,157.1970,130.9171,229.5375,0,U,60243,999,10860,.42455202E-3,.7207E-4,0
LASARSAT,2024-247Q,2026-07-01T10:37:24.818304,15.47204595,.00066341,44.9721,182.0574,62.8619,297.2947,0,U,62391,999,8552,.73494225E-3,.38073E-3,0
CROCUBE,2024-247T,2026-07-01T07:02:47.314752,15.49208624,.0006553,44.9690,179.9931,67.6168,292.5416,0,U,62394,999,8553,.91475E-3,.5103E-3,0
FORESAIL-1 PRIME,2025-276DS,2026-07-01T14:57:13.565952,15.18829300,.00037041,97.4199,255.6304,73.9731,286.1911,0,U,66778,999,3259,.26706847E-3,.5495E-4,0
KNACKSAT-2,1998-067XZ,2026-07-01T15:07:42.976992,15.61241236,.00084328,51.6257,221.7605,278.9174,81.0864,0,U,67683,999,2253,.58880319E-3,.50776E-3,0
