SIRION PATHFINDER-2     
1 43759U 18099B   26182.38589249  .00005099  00000+0  27896-3 0  9999
2 43759  97.4243 231.1062 0007242 244.4216 115.6268 15.14671485414776
CORVUS BC4              
1 43767U 18099K   26182.08100218  .00005142  00000+0  29796-3 0  9990
2 43767  97.4054 224.6547 0006930 321.1885  38.8848 15.12603535414508
M2 PATHFINDER           
1 45727U 20037E   26182.47735576  .00003267  00000+0  23602-3 0  9993
2 45727  97.8144  13.8690 0012783 104.1091 256.1556 15.04739933327640
NETSAT-4                
1 46504U 20068U   26181.99314964  .00020676  00000+0  45016-3 0  9997
2 46504  97.8597 191.3470 0003299 259.8580 100.2295 15.44320928317908
NETSAT-3                
1 46505U 20068V   26182.46384424  .00021692  00000+0  49071-3 0  9993
2 46505  97.8647 190.0546 0002894 286.5770  73.5158 15.43171946317883
NETSAT-1                
1 46506U 20068W   26182.47875743  .00014423  00000+0  42746-3 0  9990
2 46506  97.8742 184.2317 0003229 341.4177  18.6947 15.34966050317497
NETSAT-2                
1 46507U 20068X   26182.27237958  .00031310  00000+0  62895-3 0  9990
2 46507  97.8608 191.5959 0001498 318.0900  42.0233 15.46605782317913
GREENCUBE (IO-117)      
1 53109U 22080E   26181.72466670 -.00000003  00000+0  00000+0 0  9998
2 53109  70.1437 293.5372 0008958 286.6703  73.2973  6.42583253 92937
SITRO-AIS 5 (KATYS)     
1 57176U 23091L   26182.59282452  .00014868  00000+0  51650-3 0  9993
2 57176  97.5053 246.6315 0012036  58.3318 301.9094 15.29786509166544
SITRO-AIS 6 (CHIRKIN)   
1 57192U 23091AC  26182.60523829  .00011958  00000+0  46373-3 0  9992
2 57192  97.5060 245.6860 0012470  61.5967 298.6526 15.26208667166488
SITRO-AIS 8 (ANOKHIN)   
1 57193U 23091AD  26182.64970710  .00018041  00000+0  57516-3 0  9993
2 57193  97.5050 248.3370 0010894  54.3476 305.8778 15.32529593166668
SITRO-AIS 7 (FARTUSHNIY)
1 57194U 23091AE  26182.61136127  .00011359  00000+0  44491-3 0  9990
2 57194  97.5057 245.5097 0012407  62.6841 297.5659 15.25889939166470
SITRO-AIS 10 (BURDAEV)  
1 57199U 23091AK  26182.61975829  .00024313  00000+0  62705-3 0  9997
2 57199  97.5076 253.5112 0006187  34.2677 325.8966 15.39155744166980
SITRO-AIS 9 (SHCHUKIN)  
1 57201U 23091AM  26182.58577867  .00022467  00000+0  58927-3 0  9996
2 57201  97.5075 253.1950 0006452  34.3388 325.8273 15.38652445166962
SITRO-AIS 12 (SMIRENNIY)
1 57204U 23091AQ  26182.63868146  .00023281  00000+0  60471-3 0  9990
2 57204  97.5087 253.7255 0005929  28.6080 331.5489 15.38948677166996
SITRO-AIS 11 (SHEFFER)  
1 57208U 23091AU  26182.64806816  .00022741  00000+0  58251-3 0  9994
2 57208  97.5086 253.9909 0005808  28.0877 332.0681 15.39381742167010
SITRO-AIS 25            
1 59066U 24039R   26182.64668281  .00003133  00000+0  24623-3 0  9993
2 59066  95.3899 245.0288 0142324 277.5381  80.9696 14.93581005126888
SITRO-AIS 26            
1 59067U 24039S   26182.65003733  .00003048  00000+0  24078-3 0  9999
2 59067  95.3901 244.9259 0142649 278.1412  80.3654 14.93375045126873
SITRO-AIS 27            
1 59068U 24039T   26182.61621372  .00002233  00000+0  17562-3 0  9996
2 59068  95.3906 245.1814 0141767 276.8373  81.6741 14.93797545126896
SITRO-AIS 28            
1 59071U 24039U   26182.66032420  .00003183  00000+0  24893-3 0  9995
2 59071  95.3906 245.2595 0141535 276.5055  82.0074 14.93831959126908
GRBBETA                 
1 60237U 24128C   26182.48884565  .00003899  00000+0  27107-3 0  9990
2 60237  61.9883 166.0851 0038811 137.7509 222.6586 15.06725243108426
OOV-CUBE (TUBSAT-30)    
1 60240U 24128F   26182.56074397  .00001946  00000+0  15749-3 0  9997
2 60240  61.9925 175.4501 0042863 136.9711 223.4745 15.02825965108278
ROBUSTA-3A (MEDITERRAN*)
1 60243U 24128J   26182.62046117  .00007207  00000+0  42455-3 0  9996
2 60243  61.9851 157.1970 0039714 130.9171 229.5375 15.11819152108605
LASARSAT                
1 62391U 24247Q   26182.44264836  .00038073  00000+0  73494-3 0  9996
2 62391  44.9721 182.0574 0006634  62.8619 297.2947 15.47204595 85520
CROCUBE                 
1 62394U 24247T   26182.29360318  .00051030  00000+0  91475-3 0  9991
2 62394  44.9690 179.9931 0006553  67.6168 292.5416 15.49208624 85531
FORESAIL-1 PRIME        
1 66778U 25276DS  26182.62307368  .00005495  00000+0  26707-3 0  9997
2 66778  97.4199 255.6304 0003704  73.9731 286.1911 15.18829300 32598
KNACKSAT-2              
1 67683U 98067XZ  26182.63035853  .00050776  00000+0  58880-3 0  9998
2 67683  51.6257 221.7605 0008432 278.9174  81.0864 15.61241236 22536
